{
  "type": "FeatureCollection",
  "features": [
    {
      "type": "Feature",
      "properties": {
        "norad_id": 37238,
        "name": "INTELSAT 17 (IS-17)",
        "group": "intelsat",
        "lat": 0.009477655197572626,
        "lon": 140.26465281584586,
        "alt_km": 35794.98997725992,
        "timestamp": "2025-12-24T22:42:21.689998+00:00",
        "meta_object_name": "INTELSAT 17 (IS-17)",
        "meta_object_id": "2010-065B",
        "meta_epoch": "2025-12-24T04:51:15.028128",
        "meta_mean_motion": 1.00271499,
        "meta_eccentricity": 0.00026814,
        "meta_inclination": 0.0038,
        "meta_ra_of_asc_node": 327.5432,
        "meta_arg_of_pericenter": 314.0867,
        "meta_mean_anomaly": 310.1501,
        "meta_ephemeris_type": 0,
        "meta_classification_type": "U",
        "meta_norad_cat_id": 37238,
        "meta_element_set_no": 999,
        "meta_rev_at_epoch": 5149,
        "meta_bstar": 0,
        "meta_mean_motion_dot": 2e-07,
        "meta_mean_motion_ddot": 0,
        "tle_line1": "1 37238U 10065B   25358.20225727  .00000020  00000+0  00000+0 0  9995",
        "tle_line2": "2 37238   0.0038 327.5432 0002681 314.0867 310.1501  1.00271499 51491"
      },
      "geometry": {
        "type": "Point",
        "coordinates": [
          140.26465281584586,
          0.009477655197572626
        ]
      }
    },
    {
      "type": "Feature",
      "properties": {
        "norad_id": 37392,
        "name": "INTELSAT 28 (IS-28)",
        "group": "intelsat",
        "lat": -0.9013850714622103,
        "lon": 42.6335057513753,
        "alt_km": 35796.38537680204,
        "timestamp": "2025-12-24T22:42:21.690009+00:00",
        "meta_object_name": "INTELSAT 28 (IS-28)",
        "meta_object_id": "2011-016A",
        "meta_epoch": "2025-12-24T04:08:38.441760",
        "meta_mean_motion": 1.00272343,
        "meta_eccentricity": 0.00037045,
        "meta_inclination": 1.3523,
        "meta_ra_of_asc_node": 84.9324,
        "meta_arg_of_pericenter": 186.6797,
        "meta_mean_anomaly": 211.7927,
        "meta_ephemeris_type": 0,
        "meta_classification_type": "U",
        "meta_norad_cat_id": 37392,
        "meta_element_set_no": 999,
        "meta_rev_at_epoch": 5153,
        "meta_bstar": 0,
        "meta_mean_motion_dot": -2.04e-06,
        "meta_mean_motion_ddot": 0,
        "tle_line1": "1 37392U 11016A   25358.17266715 -.00000204  00000+0  00000+0 0  9996",
        "tle_line2": "2 37392   1.3523  84.9324 0003704 186.6797 211.7927  1.00272343 51533"
      },
      "geometry": {
        "type": "Point",
        "coordinates": [
          42.6335057513753,
          -0.9013850714622103
        ]
      }
    },
    {
      "type": "Feature",
      "properties": {
        "norad_id": 37834,
        "name": "INTELSAT 18 (IS-18)",
        "group": "intelsat",
        "lat": -0.022934465186035074,
        "lon": -105.71782242465429,
        "alt_km": 35779.79712047455,
        "timestamp": "2025-12-24T22:42:21.690021+00:00",
        "meta_object_name": "INTELSAT 18 (IS-18)",
        "meta_object_id": "2011-056A",
        "meta_epoch": "2025-12-24T06:00:16.855776",
        "meta_mean_motion": 1.00271571,
        "meta_eccentricity": 0.00017959,
        "meta_inclination": 0.0236,
        "meta_ra_of_asc_node": 287.3564,
        "meta_arg_of_pericenter": 1.0797,
        "meta_mean_anomaly": 74.6583,
        "meta_ephemeris_type": 0,
        "meta_classification_type": "U",
        "meta_norad_cat_id": 37834,
        "meta_element_set_no": 999,
        "meta_rev_at_epoch": 5205,
        "meta_bstar": 0,
        "meta_mean_motion_dot": 7.4e-07,
        "meta_mean_motion_ddot": 0,
        "tle_line1": "1 37834U 11056A   25358.25019509  .00000074  00000+0  00000+0 0  9991",
        "tle_line2": "2 37834   0.0236 287.3564 0001795   1.0797  74.6583  1.00271571 52058"
      },
      "geometry": {
        "type": "Point",
        "coordinates": [
          -105.71782242465429,
          -0.022934465186035074
        ]
      }
    },
    {
      "type": "Feature",
      "properties": {
        "norad_id": 38098,
        "name": "INTELSAT 22 (IS-22)",
        "group": "intelsat",
        "lat": 0.04388004097189238,
        "lon": 146.36875930358025,
        "alt_km": 35793.49210279044,
        "timestamp": "2025-12-24T22:42:21.690034+00:00",
        "meta_object_name": "INTELSAT 22 (IS-22)",
        "meta_object_id": "2012-011A",
        "meta_epoch": "2025-12-24T01:56:51.561312",
        "meta_mean_motion": 1.00270449,
        "meta_eccentricity": 0.00019329,
        "meta_inclination": 0.0277,
        "meta_ra_of_asc_node": 43.4014,
        "meta_arg_of_pericenter": 252.7744,
        "meta_mean_anomaly": 257.9865,
        "meta_ephemeris_type": 0,
        "meta_classification_type": "U",
        "meta_norad_cat_id": 38098,
        "meta_element_set_no": 999,
        "meta_rev_at_epoch": 543,
        "meta_bstar": 0,
        "meta_mean_motion_dot": 0,
        "meta_mean_motion_ddot": 0,
        "tle_line1": "1 38098U 12011A   25358.08115233  .00000000  00000+0  00000+0 0  9997",
        "tle_line2": "2 38098   0.0277  43.4014 0001932 252.7744 257.9865  1.00270449  5439"
      },
      "geometry": {
        "type": "Point",
        "coordinates": [
          146.36875930358025,
          0.04388004097189238
        ]
      }
    },
    {
      "type": "Feature",
      "properties": {
        "norad_id": 38356,
        "name": "INTELSAT 19 (IS-19)",
        "group": "intelsat",
        "lat": -0.026260843968817314,
        "lon": -119.71286895351821,
        "alt_km": 35775.32645406473,
        "timestamp": "2025-12-24T22:42:21.690046+00:00",
        "meta_object_name": "INTELSAT 19 (IS-19)",
        "meta_object_id": "2012-030A",
        "meta_epoch": "2025-12-24T05:19:49.790784",
        "meta_mean_motion": 1.002721,
        "meta_eccentricity": 0.00028904,
        "meta_inclination": 0.0139,
        "meta_ra_of_asc_node": 323.1097,
        "meta_arg_of_pericenter": 306.5362,
        "meta_mean_anomaly": 69.3166,
        "meta_ephemeris_type": 0,
        "meta_classification_type": "U",
        "meta_norad_cat_id": 38356,
        "meta_element_set_no": 999,
        "meta_rev_at_epoch": 4869,
        "meta_bstar": 0,
        "meta_mean_motion_dot": -3.5e-07,
        "meta_mean_motion_ddot": 0,
        "tle_line1": "1 38356U 12030A   25358.22210406 -.00000035  00000+0  00000+0 0  9998",
        "tle_line2": "2 38356   0.0139 323.1097 0002890 306.5362  69.3166  1.00272100 48690"
      },
      "geometry": {
        "type": "Point",
        "coordinates": [
          -119.71286895351821,
          -0.026260843968817314
        ]
      }
    },
    {
      "type": "Feature",
      "properties": {
        "norad_id": 38740,
        "name": "INTELSAT 20 (IS-20)",
        "group": "intelsat",
        "lat": 0.026803322952351,
        "lon": 142.76999290902705,
        "alt_km": 35777.416078347655,
        "timestamp": "2025-12-24T22:42:21.690058+00:00",
        "meta_object_name": "INTELSAT 20 (IS-20)",
        "meta_object_id": "2012-043A",
        "meta_epoch": "2025-12-24T04:51:59.956992",
        "meta_mean_motion": 1.00271701,
        "meta_eccentricity": 0.00027221,
        "meta_inclination": 0.0113,
        "meta_ra_of_asc_node": 58.3844,
        "meta_arg_of_pericenter": 125.0984,
        "meta_mean_anomaly": 50.9907,
        "meta_ephemeris_type": 0,
        "meta_classification_type": "U",
        "meta_norad_cat_id": 38740,
        "meta_element_set_no": 999,
        "meta_rev_at_epoch": 4899,
        "meta_bstar": 0,
        "meta_mean_motion_dot": -3e-08,
        "meta_mean_motion_ddot": 0,
        "tle_line1": "1 38740U 12043A   25358.20277728 -.00000003  00000+0  00000+0 0  9992",
        "tle_line2": "2 38740   0.0113  58.3844 0002722 125.0984  50.9907  1.00271701 48992"
      },
      "geometry": {
        "type": "Point",
        "coordinates": [
          142.76999290902705,
          0.026803322952351
        ]
      }
    },
    {
      "type": "Feature",
      "properties": {
        "norad_id": 38749,
        "name": "INTELSAT 21 (IS-21)",
        "group": "intelsat",
        "lat": 0.013212043649565533,
        "lon": 16.327845388971095,
        "alt_km": 35788.632282352584,
        "timestamp": "2025-12-24T22:42:21.690070+00:00",
        "meta_object_name": "INTELSAT 21 (IS-21)",
        "meta_object_id": "2012-045A",
        "meta_epoch": "2025-12-24T05:58:31.084032",
        "meta_mean_motion": 1.00273058,
        "meta_eccentricity": 0.00016655,
        "meta_inclination": 0.0142,
        "meta_ra_of_asc_node": 305.8684,
        "meta_arg_of_pericenter": 316.6574,
        "meta_mean_anomaly": 222.1401,
        "meta_ephemeris_type": 0,
        "meta_classification_type": "U",
        "meta_norad_cat_id": 38749,
        "meta_element_set_no": 999,
        "meta_rev_at_epoch": 4877,
        "meta_bstar": 0,
        "meta_mean_motion_dot": -2.64e-06,
        "meta_mean_motion_ddot": 0,
        "tle_line1": "1 38749U 12045A   25358.24897088 -.00000264  00000+0  00000+0 0  9993",
        "tle_line2": "2 38749   0.0142 305.8684 0001665 316.6574 222.1401  1.00273058 48778"
      },
      "geometry": {
        "type": "Point",
        "coordinates": [
          16.327845388971095,
          0.013212043649565533
        ]
      }
    }
  ]
}